[{"OBJECT_NAME":"STARLINK-5200","OBJECT_ID":"2022-136BE","EPOCH":"2026-03-03T04:05:08.635776","MEAN_MOTION":15.08837093,"ECCENTRICITY":0.0001479,"INCLINATION":53.2199,"RA_OF_ASC_NODE":343.1711,"ARG_OF_PERICENTER":84.7039,"MEAN_ANOMALY":275.4122,"EPHEMERIS_TYPE":0,"CLASSIFICATION_TYPE":"U","NORAD_CAT_ID":54103,"ELEMENT_SET_NO":999,"REV_AT_EPOCH":18628,"BSTAR":4.6956e-5,"MEAN_MOTION_DOT":4.59e-6,"MEAN_MOTION_DDOT":0},{"OBJECT_NAME":"STARLINK-5203","OBJECT_ID":"2022-136BF","EPOCH":"2026-03-03T03:32:38.335488","MEAN_MOTION":15.08842692,"ECCENTRICITY":0.0001533,"INCLINATION":53.2175,"RA_OF_ASC_NODE":328.0485,"ARG_OF_PERICENTER":81.332,"MEAN_ANOMALY":278.7846,"EPHEMERIS_TYPE":0,"CLASSIFICATION_TYPE":"U","NORAD_CAT_ID":54104,"ELEMENT_SET_NO":999,"REV_AT_EPOCH":18649,"BSTAR":2.1864e-5,"MEAN_MOTION_DOT":6.0e-7,"MEAN_MOTION_DDOT":0},{"OBJECT_NAME":"STARLINK-5290","OBJECT_ID":"2022-141A","EPOCH":"2026-03-03T04:03:53.513568","MEAN_MOTION":15.08836881,"ECCENTRICITY":0.0001375,"INCLINATION":53.2186,"RA_OF_ASC_NODE":43.3437,"ARG_OF_PERICENTER":92.6064,"MEAN_ANOMALY":267.5085,"EPHEMERIS_TYPE":0,"CLASSIFICATION_TYPE":"U","NORAD_CAT_ID":54157,"ELEMENT_SET_NO":999,"REV_AT_EPOCH":18473,"BSTAR":4.9238e-5,"MEAN_MOTION_DOT":4.96e-6,"MEAN_MOTION_DDOT":0},{"OBJECT_NAME":"STARLINK-5297","OBJECT_ID":"2022-141B","EPOCH":"2026-03-03T09:15:12.732192","MEAN_MOTION":15.08840238,"ECCENTRICITY":0.0001902,"INCLINATION":53.2181,"RA_OF_ASC_NODE":42.554,"ARG_OF_PERICENTER":96.1259,"MEAN_ANOMALY":263.995,"EPHEMERIS_TYPE":0,"CLASSIFICATION_TYPE":"U","NORAD_CAT_ID":54158,"ELEMENT_SET_NO":999,"REV_AT_EPOCH":18476,"BSTAR":7.9273e-5,"MEAN_MOTION_DOT":9.74e-6,"MEAN_MOTION_DDOT":0},{"OBJECT_NAME":"STARLINK-5294","OBJECT_ID":"2022-141C","EPOCH":"2026-03-03T09:09:53.209440","MEAN_MOTION":15.08854652,"ECCENTRICITY":0.0001235,"INCLINATION":53.2181,"RA_OF_ASC_NODE":42.5395,"ARG_OF_PERICENTER":91.6224,"MEAN_ANOMALY":268.4909,"EPHEMERIS_TYPE":0,"CLASSIFICATION_TYPE":"U","NORAD_CAT_ID":54159,"ELEMENT_SET_NO":999,"REV_AT_EPOCH":18476,"BSTAR":-0.00026137,"MEAN_MOTION_DOT":-4.447e-5,"MEAN_MOTION_DDOT":0},{"OBJECT_NAME":"STARLINK-5233","OBJECT_ID":"2022-141D","EPOCH":"2026-03-03T05:30:37.096992","MEAN_MOTION":15.08840748,"ECCENTRICITY":0.0001383,"INCLINATION":53.2186,"RA_OF_ASC_NODE":358.0882,"ARG_OF_PERICENTER":91.1857,"MEAN_ANOMALY":268.9293,"EPHEMERIS_TYPE":0,"CLASSIFICATION_TYPE":"U","NORAD_CAT_ID":54160,"ELEMENT_SET_NO":999,"REV_AT_EPOCH":18537,"BSTAR":1.5635e-5,"MEAN_MOTION_DOT":-3.9e-7,"MEAN_MOTION_DDOT":0},{"OBJECT_NAME":"STARLINK-5269","OBJECT_ID":"2022-141E","EPOCH":"2026-03-03T09:11:16.780704","MEAN_MOTION":15.08837736,"ECCENTRICITY":0.0001442,"INCLINATION":53.2182,"RA_OF_ASC_NODE":42.538,"ARG_OF_PERICENTER":96.5401,"MEAN_ANOMALY":263.5755,"EPHEMERIS_TYPE":0,"CLASSIFICATION_TYPE":"U","NORAD_CAT_ID":54161,"ELEMENT_SET_NO":999,"REV_AT_EPOCH":18476,"BSTAR":6.4354e-5,"MEAN_MOTION_DOT":7.36e-6,"MEAN_MOTION_DDOT":0},{"OBJECT_NAME":"STARLINK-5273","OBJECT_ID":"2022-141F","EPOCH":"2026-03-03T04:13:07.759200","MEAN_MOTION":15.08837794,"ECCENTRICITY":0.0001393,"INCLINATION":53.2179,"RA_OF_ASC_NODE":43.3755,"ARG_OF_PERICENTER":102.0331,"MEAN_ANOMALY":258.0817,"EPHEMERIS_TYPE":0,"CLASSIFICATION_TYPE":"U","NORAD_CAT_ID":54162,"ELEMENT_SET_NO":999,"REV_AT_EPOCH":18473,"BSTAR":1.6059e-5,"MEAN_MOTION_DOT":-3.2e-7,"MEAN_MOTION_DDOT":0},{"OBJECT_NAME":"STARLINK-5161","OBJECT_ID":"2022-141G","EPOCH":"2026-03-03T07:41:08.523456","MEAN_MOTION":15.0884683,"ECCENTRICITY":0.0001264,"INCLINATION":53.2173,"RA_OF_ASC_NODE":32.882,"ARG_OF_PERICENTER":75.9615,"MEAN_ANOMALY":284.1518,"EPHEMERIS_TYPE":0,"CLASSIFICATION_TYPE":"U","NORAD_CAT_ID":54163,"ELEMENT_SET_NO":999,"REV_AT_EPOCH":18489,"BSTAR":0.0001086,"MEAN_MOTION_DOT":1.441e-5,"MEAN_MOTION_DDOT":0},{"OBJECT_NAME":"STARLINK-5278","OBJECT_ID":"2022-141H","EPOCH":"2026-03-03T07:46:26.826240","MEAN_MOTION":15.08839893,"ECCENTRICITY":0.0001554,"INCLINATION":53.2186,"RA_OF_ASC_NODE":32.9043,"ARG_OF_PERICENTER":108.2477,"MEAN_ANOMALY":251.8684,"EPHEMERIS_TYPE":0,"CLASSIFICATION_TYPE":"U","NORAD_CAT_ID":54164,"ELEMENT_SET_NO":999,"REV_AT_EPOCH":18489,"BSTAR":1.9276e-5,"MEAN_MOTION_DOT":1.9e-7,"MEAN_MOTION_DDOT":0},{"OBJECT_NAME":"STARLINK-5279","OBJECT_ID":"2022-141J","EPOCH":"2026-03-03T04:07:49.967904","MEAN_MOTION":15.08840107,"ECCENTRICITY":0.0001348,"INCLINATION":53.2176,"RA_OF_ASC_NODE":43.3537,"ARG_OF_PERICENTER":82.0907,"MEAN_ANOMALY":278.0238,"EPHEMERIS_TYPE":0,"CLASSIFICATION_TYPE":"U","NORAD_CAT_ID":54165,"ELEMENT_SET_NO":999,"REV_AT_EPOCH":18473,"BSTAR":0.00010573,"MEAN_MOTION_DOT":1.395e-5,"MEAN_MOTION_DDOT":0},{"OBJECT_NAME":"STARLINK-5280","OBJECT_ID":"2022-141K","EPOCH":"2026-03-03T04:25:04.260576","MEAN_MOTION":15.08839994,"ECCENTRICITY":0.0001381,"INCLINATION":53.2184,"RA_OF_ASC_NODE":33.454,"ARG_OF_PERICENTER":89.93,"MEAN_ANOMALY":270.1851,"EPHEMERIS_TYPE":0,"CLASSIFICATION_TYPE":"U","NORAD_CAT_ID":54166,"ELEMENT_SET_NO":999,"REV_AT_EPOCH":18487,"BSTAR":4.4695e-5,"MEAN_MOTION_DOT":4.23e-6,"MEAN_MOTION_DDOT":0},{"OBJECT_NAME":"STARLINK-5243","OBJECT_ID":"2022-141L","EPOCH":"2026-03-03T08:27:26.497728","MEAN_MOTION":15.08840889,"ECCENTRICITY":0.000135,"INCLINATION":53.2181,"RA_OF_ASC_NODE":42.3491,"ARG_OF_PERICENTER":88.6582,"MEAN_ANOMALY":271.4565,"EPHEMERIS_TYPE":0,"CLASSIFICATION_TYPE":"U","NORAD_CAT_ID":54167,"ELEMENT_SET_NO":999,"REV_AT_EPOCH":18476,"BSTAR":3.2595e-5,"MEAN_MOTION_DOT":2.31e-6,"MEAN_MOTION_DDOT":0},{"OBJECT_NAME":"STARLINK-5245","OBJECT_ID":"2022-141M","EPOCH":"2026-03-03T04:19:45.945696","MEAN_MOTION":15.088383,"ECCENTRICITY":0.000149,"INCLINATION":53.2182,"RA_OF_ASC_NODE":33.431,"ARG_OF_PERICENTER":89.1458,"MEAN_ANOMALY":270.9705,"EPHEMERIS_TYPE":0,"CLASSIFICATION_TYPE":"U","NORAD_CAT_ID":54168,"ELEMENT_SET_NO":999,"REV_AT_EPOCH":18487,"BSTAR":4.5288e-5,"MEAN_MOTION_DOT":4.33e-6,"MEAN_MOTION_DDOT":0},{"OBJECT_NAME":"STARLINK-5282","OBJECT_ID":"2022-141N","EPOCH":"2026-03-03T07:51:38.051136","MEAN_MOTION":15.08842427,"ECCENTRICITY":0.0001256,"INCLINATION":53.2177,"RA_OF_ASC_NODE":32.229,"ARG_OF_PERICENTER":91.4587,"MEAN_ANOMALY":268.6549,"EPHEMERIS_TYPE":0,"CLASSIFICATION_TYPE":"U","NORAD_CAT_ID":54169,"ELEMENT_SET_NO":999,"REV_AT_EPOCH":18490,"BSTAR":0.00023817,"MEAN_MOTION_DOT":3.505e-5,"MEAN_MOTION_DDOT":0},{"OBJECT_NAME":"STARLINK-5155","OBJECT_ID":"2022-141P","EPOCH":"2026-03-03T04:14:27.577248","MEAN_MOTION":15.08837862,"ECCENTRICITY":0.0001854,"INCLINATION":53.2202,"RA_OF_ASC_NODE":33.404,"ARG_OF_PERICENTER":118.1661,"MEAN_ANOMALY":241.9519,"EPHEMERIS_TYPE":0,"CLASSIFICATION_TYPE":"U","NORAD_CAT_ID":54170,"ELEMENT_SET_NO":999,"REV_AT_EPOCH":18487,"BSTAR":-2.9453e-5,"MEAN_MOTION_DOT":-7.57e-6,"MEAN_MOTION_DDOT":0},{"OBJECT_NAME":"STARLINK-5117","OBJECT_ID":"2022-141R","EPOCH":"2026-03-03T05:39:14.982912","MEAN_MOTION":15.08838842,"ECCENTRICITY":0.0001482,"INCLINATION":53.2188,"RA_OF_ASC_NODE":33.0662,"ARG_OF_PERICENTER":85.6193,"MEAN_ANOMALY":274.4969,"EPHEMERIS_TYPE":0,"CLASSIFICATION_TYPE":"U","NORAD_CAT_ID":54172,"ELEMENT_SET_NO":999,"REV_AT_EPOCH":18488,"BSTAR":9.3138e-5,"MEAN_MOTION_DOT":1.195e-5,"MEAN_MOTION_DDOT":0}]
