STARLINK-5200           
1 54103U 22136BE  26062.17023884  .00000459  00000+0  46956-4 0  9997
2 54103  53.2199 343.1711 0001479  84.7039 275.4122 15.08837093186288
STARLINK-5203           
1 54104U 22136BF  26062.14766592  .00000060  00000+0  21864-4 0  9994
2 54104  53.2175 328.0485 0001533  81.3320 278.7846 15.08842692186493
STARLINK-5290           
1 54157U 22141A   26062.16936937  .00000496  00000+0  49238-4 0  9990
2 54157  53.2186  43.3437 0001375  92.6064 267.5085 15.08836881184730
STARLINK-5297           
1 54158U 22141B   26062.38556403  .00000974  00000+0  79273-4 0  9994
2 54158  53.2181  42.5540 0001902  96.1259 263.9950 15.08840238184768
STARLINK-5294           
1 54159U 22141C   26062.38186585 -.00004447  00000+0 -26137-3 0  9996
2 54159  53.2181  42.5395 0001235  91.6224 268.4909 15.08854652184767
STARLINK-5233           
1 54160U 22141D   26062.22959603 -.00000039  00000+0  15635-4 0  9994
2 54160  53.2186 358.0882 0001383  91.1857 268.9293 15.08840748185371
STARLINK-5269           
1 54161U 22141E   26062.38283311  .00000736  00000+0  64354-4 0  9993
2 54161  53.2182  42.5380 0001442  96.5401 263.5755 15.08837736184765
STARLINK-5273           
1 54162U 22141F   26062.17578425 -.00000032  00000+0  16059-4 0  9993
2 54162  53.2179  43.3755 0001393 102.0331 258.0817 15.08837794184736
STARLINK-5161           
1 54163U 22141G   26062.32023754  .00001441  00000+0  10860-3 0  9998
2 54163  53.2173  32.8820 0001264  75.9615 284.1518 15.08846830184893
STARLINK-5278           
1 54164U 22141H   26062.32392160  .00000019  00000+0  19276-4 0  9990
2 54164  53.2186  32.9043 0001554 108.2477 251.8684 15.08839893184890
STARLINK-5279           
1 54165U 22141J   26062.17210611  .00001395  00000+0  10573-3 0  9992
2 54165  53.2176  43.3537 0001348  82.0907 278.0238 15.08840107184731
STARLINK-5280           
1 54166U 22141K   26062.18407709  .00000423  00000+0  44695-4 0  9994
2 54166  53.2184  33.4540 0001381  89.9300 270.1851 15.08839994184876
STARLINK-5243           
1 54167U 22141L   26062.35239002  .00000231  00000+0  32595-4 0  9996
2 54167  53.2181  42.3491 0001350  88.6582 271.4565 15.08840889184761
STARLINK-5245           
1 54168U 22141M   26062.18039289  .00000433  00000+0  45288-4 0  9990
2 54168  53.2182  33.4310 0001490  89.1458 270.9705 15.08838300184874
STARLINK-5282           
1 54169U 22141N   26062.32752374  .00003505  00000+0  23817-3 0  9990
2 54169  53.2177  32.2290 0001256  91.4587 268.6549 15.08842427184901
STARLINK-5155           
1 54170U 22141P   26062.17670807 -.00000757  00000+0 -29453-4 0  9996
2 54170  53.2202  33.4040 0001854 118.1661 241.9519 15.08837862184876
STARLINK-5117           
1 54172U 22141R   26062.23559008  .00001195  00000+0  93138-4 0  9990
2 54172  53.2188  33.0662 0001482  85.6193 274.4969 15.08838842184882
